     3.03           N: GNSS NAV DATA    G: GPS              RINEX VERSION / TYPE
sbf2rin-13.0.0x                         20210102 001106 UTC PGM / RUN BY / DATE 
GPSA   7.4506E-09 -1.4901E-08 -5.9605E-08  1.1921E-07       IONOSPHERIC CORR    
GPSB   9.0112E+04 -6.5536E+04 -1.3107E+05  4.5875E+05       IONOSPHERIC CORR    
                                                            COMMENT             
                                                            COMMENT             
ABPO                                    MARKER NAME         COMMENT
33302M001                               MARKER NUMBER       COMMENT
  4097216.5539  4429119.1897 -2065771.1988                  COMMENT
                                                            END OF HEADER       
G21 2021 01 01 10 00 00 8.289236575365E-05 3.410605131648E-12 0.000000000000E+00
     4.800000000000E+01-4.078125000000E+01 5.122713381574E-09 3.852647558464E-01
    -2.449378371239E-06 2.413789159618E-02 1.585111021996E-06 5.153733539581E+03
     4.680000000000E+05-1.359730958939E-07-8.887668357461E-01-2.849847078323E-07
     9.555902784107E-01 3.532500000000E+02-1.220854403841E+00-8.991803116121E-09
    -1.285767843106E-10 1.000000000000E+00 2.138000000000E+03 0.000000000000E+00
     2.000000000000E+00 0.000000000000E+00-1.024454832077E-08 4.800000000000E+01
     4.608180000000E+05 4.000000000000E+00
G22 2021 01 01 10 00 00-7.057962939143E-04 6.366462912410E-12 0.000000000000E+00
     4.600000000000E+01-1.159375000000E+02 4.985564811643E-09-8.813556898307E-01
    -6.018206477165E-06 6.824158132076E-03 8.892267942429E-06 5.153647304535E+03
     4.680000000000E+05-8.754432201385E-08 1.353613697272E-01-8.009374141693E-08
     9.335712854370E-01 1.932187500000E+02-1.056557087969E+00-8.333204254263E-09
     6.714565402886E-11 1.000000000000E+00 2.138000000000E+03 0.000000000000E+00
     2.000000000000E+00 0.000000000000E+00-1.816079020500E-08 4.600000000000E+01
     4.608180000000E+05 4.000000000000E+00
G03 2021 01 01 10 00 00-4.488974809647E-05-9.890754881781E-12 0.000000000000E+00
     7.400000000000E+01-1.068437500000E+02 4.077669851317E-09 3.053288030525E+00
    -5.600973963737E-06 3.259699791670E-03 9.644776582718E-06 5.153689432144E+03
     4.680000000000E+05-3.725290298462E-08 2.296052880504E-01-1.005828380585E-07
     9.682251288173E-01 1.947187500000E+02 8.800360909099E-01-7.719964424648E-09
     3.535861568541E-11 1.000000000000E+00 2.138000000000E+03 0.000000000000E+00
     2.000000000000E+00 0.000000000000E+00 1.862645149231E-09 7.400000000000E+01
     4.608180000000E+05 4.000000000000E+00
G11 2021 01 01 10 00 00-6.526987999678E-05 1.057287590811E-11 0.000000000000E+00
     1.090000000000E+02 4.365625000000E+01 5.660950087008E-09-2.633328340855E+00
     2.471730113029E-06 1.543493859936E-02-3.874301910400E-07 5.153730936050E+03
     4.680000000000E+05 5.215406417847E-08-1.298013605580E+00 2.160668373108E-07
     9.137927207804E-01 3.590000000000E+02 2.077972560561E+00-8.666075262534E-09
     1.782217093638E-10 1.000000000000E+00 2.138000000000E+03 0.000000000000E+00
     2.000000000000E+00 6.300000000000E+01-1.257285475731E-08 1.090000000000E+02
     4.608180000000E+05 4.000000000000E+00
G08 2021 01 01 10 00 00-5.003064870834E-06-1.364242052659E-12 0.000000000000E+00
     7.200000000000E+01 1.135625000000E+02 4.339466470482E-09 2.032458537085E-01
     5.966052412987E-06 5.996547755785E-03 5.058944225311E-06 5.153772790909E+03
     4.680000000000E+05 8.009374141693E-08-1.882126493209E+00-3.352761268616E-08
     9.683541640435E-01 2.838750000000E+02-5.365522695557E-02-8.173911904812E-09
     2.757257707994E-10 1.000000000000E+00 2.138000000000E+03 0.000000000000E+00
     2.000000000000E+00 0.000000000000E+00 5.122274160385E-09 7.200000000000E+01
     4.608180000000E+05 4.000000000000E+00
G07 2021 01 01 10 00 00 4.736706614494E-06 1.477928890381E-11 0.000000000000E+00
     7.400000000000E+01-1.350000000000E+01 4.943063041274E-09-2.702981065622E+00
    -8.270144462585E-07 1.431078533642E-02 5.830079317093E-06 5.153607637405E+03
     4.680000000000E+05 9.313225746155E-08 2.333130074015E+00-2.179294824600E-07
     9.519420562305E-01 2.614687500000E+02-2.356816901855E+00-7.964974630307E-09
    -2.596536727606E-10 1.000000000000E+00 2.138000000000E+03 0.000000000000E+00
     2.000000000000E+00 0.000000000000E+00-1.117587089539E-08 7.400000000000E+01
     4.608180000000E+05 4.000000000000E+00
G30 2021 01 01 10 00 00-3.618355840445E-04-6.139089236967E-12 0.000000000000E+00
     7.700000000000E+01-1.381250000000E+01 5.344151176776E-09-2.717538826754E+00
    -7.767230272293E-07 4.748641047627E-03 5.770474672318E-06 5.153756660461E+03
     4.680000000000E+05-6.146728992462E-08 2.352510585977E+00-6.332993507385E-08
     9.372057210773E-01 2.561562500000E+02-2.846236550503E+00-8.292845430299E-09
    -3.443000557650E-10 1.000000000000E+00 2.138000000000E+03 0.000000000000E+00
     2.000000000000E+00 0.000000000000E+00 3.725290298462E-09 7.700000000000E+01
     4.608180000000E+05 4.000000000000E+00
G14 2021 01 01 10 00 00 7.743621245027E-05 7.730704965070E-12 0.000000000000E+00
     1.050000000000E+02 6.096875000000E+01 4.193388957196E-09-2.207735645623E+00
     3.267079591751E-06 2.350816503167E-04 1.058913767338E-05 5.153743120193E+03
     4.680000000000E+05 1.490116119385E-08-2.866318663346E+00 1.676380634308E-08
     9.594097073567E-01 1.730000000000E+02 1.880031688146E+00-7.747108412447E-09
    -2.989410235221E-10 1.000000000000E+00 2.138000000000E+03 0.000000000000E+00
     2.000000000000E+00 0.000000000000E+00-2.328306436539E-09 6.170000000000E+02
     4.608180000000E+05 4.000000000000E+00
G28 2021 01 01 10 00 00 6.356057710946E-04-5.115907697473E-12 0.000000000000E+00
     5.800000000000E+01 5.753125000000E+01 3.943021385525E-09 8.637950494224E-01
     2.909451723099E-06 1.814168062992E-02 1.077540218830E-05 5.153672658920E+03
     4.680000000000E+05-1.788139343262E-07-2.819092456642E+00-2.644956111908E-07
     9.750883753390E-01 1.823750000000E+02-1.359795106936E+00-7.884256982379E-09
    -2.900120801672E-10 1.000000000000E+00 2.138000000000E+03 0.000000000000E+00
     2.000000000000E+00 0.000000000000E+00-1.117587089539E-08 5.800000000000E+01
     4.608180000000E+05 4.000000000000E+00
G27 2021 01 01 10 00 00-4.696380347013E-05-7.844391802792E-12 0.000000000000E+00
     1.000000000000E+02 1.154375000000E+02 4.217675683122E-09 1.415510404890E-01
     6.115064024925E-06 8.755972492509E-03 4.883855581284E-06 5.153676900864E+03
     4.680000000000E+05 5.401670932770E-08-1.866068413034E+00 9.126961231232E-08
     9.768597716391E-01 2.944375000000E+02 5.645872893039E-01-8.157839806773E-09
     2.707255625206E-10 1.000000000000E+00 2.138000000000E+03 0.000000000000E+00
     2.800000000000E+00 0.000000000000E+00 1.862645149231E-09 1.000000000000E+02
     4.608180000000E+05 4.000000000000E+00
G16 2021 01 01 09 59 44-2.586888149381E-04-5.456968210638E-12 0.000000000000E+00
     1.200000000000E+01 6.553125000000E+01 3.801944080517E-09 1.044622262882E+00
     3.617256879807E-06 1.197262317874E-02 1.153163611889E-05 5.153633869171E+03
     4.679840000000E+05-1.974403858185E-07-2.822693596267E+00 7.450580596924E-08
     9.760280090843E-01 1.664062500000E+02 6.377250535911E-01-7.657818978898E-09
    -4.778770483544E-10 1.000000000000E+00 2.138000000000E+03 0.000000000000E+00
     2.000000000000E+00 0.000000000000E+00-1.071020960808E-08 1.200000000000E+01
     4.608180000000E+05 4.000000000000E+00
G04 2021 01 01 10 00 00-1.691947691143E-04-3.069544618484E-12 0.000000000000E+00
     8.500000000000E+01 7.500000000000E+00 4.592334146293E-09-3.124795782230E-01
     2.291053533554E-07 1.010775566101E-03 8.186325430870E-06 5.153598649979E+03
     4.680000000000E+05 5.587935447693E-09 1.309307482369E+00-2.235174179077E-08
     9.598654341339E-01 2.211250000000E+02-3.073648270428E+00-7.932116118761E-09
     4.135886561991E-10 1.000000000000E+00 2.138000000000E+03 0.000000000000E+00
     2.000000000000E+00 0.000000000000E+00-4.190951585770E-09 8.500000000000E+01
     4.608180000000E+05 4.000000000000E+00
G17 2021 01 01 10 00 00 3.746044822037E-04 4.888534022029E-12 0.000000000000E+00
     1.400000000000E+01 1.112187500000E+02 4.120171621686E-09 2.694515309378E-02
     5.664303898811E-06 1.363438705448E-02 4.325062036514E-06 5.153523401260E+03
     4.680000000000E+05-2.421438694000E-07-1.806260982111E+00 2.235174179077E-08
     9.828955829177E-01 3.096250000000E+02-1.593696237834E+00-8.216770832915E-09
     2.885834492304E-10 1.000000000000E+00 2.138000000000E+03 0.000000000000E+00
     2.000000000000E+00 0.000000000000E+00-1.117587089539E-08 1.400000000000E+01
     4.632180000000E+05 4.000000000000E+00
G06 2021 01 01 10 00 00-4.593282938004E-06-2.273736754432E-13 0.000000000000E+00
     8.000000000000E+01-6.796875000000E+01 4.373753612965E-09-1.654478307205E+00
    -3.401190042496E-06 2.191737527028E-03 1.551583409309E-06 5.153679971695E+03
     4.680000000000E+05-5.029141902924E-08-8.172291161644E-01-1.117587089539E-08
     9.822303794379E-01 3.626250000000E+02-1.133555531104E+00-8.196055684332E-09
    -1.175048945505E-10 1.000000000000E+00 2.138000000000E+03 0.000000000000E+00
     2.000000000000E+00 0.000000000000E+00 4.190951585770E-09 8.000000000000E+01
     4.633380000000E+05 4.000000000000E+00
G09 2021 01 01 09 59 44-3.079636953771E-04-4.206412995700E-12 0.000000000000E+00
     6.000000000000E+00 1.134375000000E+01 4.765912805113E-09 5.718117507803E-01
     4.861503839493E-07 2.032079035416E-03 8.573755621910E-06 5.153588941574E+03
     4.679840000000E+05-4.656612873077E-08 1.259631443791E+00-3.911554813385E-08
     9.527032783385E-01 2.094687500000E+02 1.783503825545E+00-8.027477233791E-09
     4.543046378974E-10 1.000000000000E+00 2.138000000000E+03 0.000000000000E+00
     2.000000000000E+00 0.000000000000E+00 1.396983861923E-09 6.000000000000E+00
     4.636620000000E+05 4.000000000000E+00
